[{"OBJECT_NAME":"STARLINK-5439","OBJECT_ID":"2022-175AB","EPOCH":"2026-03-09T21:56:38.223456","MEAN_MOTION":15.08830949,"ECCENTRICITY":0.00013224,"INCLINATION":53.2182,"RA_OF_ASC_NODE":28.0943,"ARG_OF_PERICENTER":93.3813,"MEAN_ANOMALY":266.7331,"EPHEMERIS_TYPE":0,"CLASSIFICATION_TYPE":"U","NORAD_CAT_ID":54783,"ELEMENT_SET_NO":999,"REV_AT_EPOCH":18016,"BSTAR":-2.0345e-7,"MEAN_MOTION_DOT":-2.91e-6,"MEAN_MOTION_DDOT":0},{"OBJECT_NAME":"IRIDIUM 33 DEB","OBJECT_ID":"1997-051PF","EPOCH":"2026-03-08T20:08:48.628608","MEAN_MOTION":15.0410284,"ECCENTRICITY":0.00301759,"INCLINATION":86.2075,"RA_OF_ASC_NODE":10.7469,"ARG_OF_PERICENTER":217.121,"MEAN_ANOMALY":142.7938,"EPHEMERIS_TYPE":0,"CLASSIFICATION_TYPE":"U","NORAD_CAT_ID":35080,"ELEMENT_SET_NO":999,"REV_AT_EPOCH":70973,"BSTAR":0.01054144,"MEAN_MOTION_DOT":0.00150308,"MEAN_MOTION_DDOT":0}]
